[{"OBJECT_NAME":"STARLINK-35690","OBJECT_ID":"2025-257D","EPOCH":"2026-03-09T16:08:37.824000","MEAN_MOTION":15.30193819,"ECCENTRICITY":0.00010438,"INCLINATION":53.1601,"RA_OF_ASC_NODE":216.9097,"ARG_OF_PERICENTER":74.2963,"MEAN_ANOMALY":285.8153,"EPHEMERIS_TYPE":0,"CLASSIFICATION_TYPE":"U","NORAD_CAT_ID":66383,"ELEMENT_SET_NO":999,"REV_AT_EPOCH":1973,"BSTAR":0.0009368491,"MEAN_MOTION_DOT":0.00027485,"MEAN_MOTION_DDOT":0},{"OBJECT_NAME":"KUIPER-00252","OBJECT_ID":"2025-301AA","EPOCH":"2026-03-09T22:00:01.999584","MEAN_MOTION":15.32961042,"ECCENTRICITY":0.00108625,"INCLINATION":51.8682,"RA_OF_ASC_NODE":64.6463,"ARG_OF_PERICENTER":55.9089,"MEAN_ANOMALY":330.8749,"EPHEMERIS_TYPE":0,"CLASSIFICATION_TYPE":"U","NORAD_CAT_ID":67157,"ELEMENT_SET_NO":999,"REV_AT_EPOCH":542,"BSTAR":-0.017504489,"MEAN_MOTION_DOT":-0.00529484,"MEAN_MOTION_DDOT":0}]
